IRIDIUM 171             
1 43929U 19002H   25187.94670015  .00000005  00000+0 -52777-5 0  9992
2 43929  86.4007 138.1757 0001816  84.7757 275.3646 14.34217543339473
IRIDIUM 170             
1 43930U 19002J   25187.88921371  .00000652  00000+0  99520-4 0  9994
2 43930  86.6120 137.9500 0002548  78.5326 281.6177 14.72256361348452
IRIDIUM 167             
1 43931U 19002K   25187.94035743 -.00000011  00000+0 -10898-4 0  9993
2 43931  86.3998 137.9299 0001830  75.7501 284.3898 14.34217458339479
IRIDIUM 181             
1 56726U 23068S   25187.56876748  .00000155  00000+0  40023-4 0  9992
2 56726  86.4517 201.1419 0001893 101.4257 258.7157 14.43309185112588
IRIDIUM 177             
1 56727U 23068T   25187.87836413  .00000935  00000+0  11957-3 0  9991
2 56727  86.1990 132.7859 0002293  86.0826 274.0657 14.80231637115286
IRIDIUM 174             
1 56728U 23068U   25187.87687127  .00000719  00000+0  11008-3 0  9995
2 56728  86.6128 138.0673 0003203  85.9032 274.2551 14.72248761115212
IRIDIUM 178             
1 56729U 23068V   25187.93506604  .00000908  00000+0  11601-3 0  9992
2 56729  86.6576 169.5937 0002788  88.2957 271.8584 14.80235886115291
IRIDIUM 179             
1 56730U 23068W   25187.92969603  .00000403  00000+0  49627-4 0  9995
2 56730  86.6813 177.5251 0002570  87.0056 273.1460 14.80234498115297
